{
  "type": "FeatureCollection",
  "features": [
    {
      "type": "Feature",
      "properties": {
        "norad_id": 29486,
        "name": "GPS BIIRM-2 (PRN 31)",
        "group": "gnss",
        "lat": NaN,
        "lon": NaN,
        "alt_km": NaN,
        "timestamp": "2025-12-01T02:46:59.658304+00:00",
        "meta": {
          "OBJECT_NAME": "GPS BIIRM-2 (PRN 31)",
          "OBJECT_ID": "2006-042A",
          "EPOCH": "2025-11-30T13:49:49.435104",
          "MEAN_MOTION": 2.00554533,
          "ECCENTRICITY": 0.0107364,
          "INCLINATION": 54.6926,
          "RA_OF_ASC_NODE": 159.2234,
          "ARG_OF_PERICENTER": 51.6693,
          "MEAN_ANOMALY": 320.3415,
          "EPHEMERIS_TYPE": 0,
          "CLASSIFICATION_TYPE": "U",
          "NORAD_CAT_ID": 29486,
          "ELEMENT_SET_NO": 999,
          "REV_AT_EPOCH": 14041,
          "BSTAR": 0,
          "MEAN_MOTION_DOT": 1.29e-06,
          "MEAN_MOTION_DDOT": 0
        }
      },
      "geometry": {
        "type": "Point",
        "coordinates": [
          NaN,
          NaN
        ]
      }
    },
    {
      "type": "Feature",
      "properties": {
        "norad_id": 29601,
        "name": "GPS BIIRM-3 (PRN 12)",
        "group": "gnss",
        "lat": NaN,
        "lon": NaN,
        "alt_km": NaN,
        "timestamp": "2025-12-01T02:46:59.658323+00:00",
        "meta": {
          "OBJECT_NAME": "GPS BIIRM-3 (PRN 12)",
          "OBJECT_ID": "2006-052A",
          "EPOCH": "2025-11-29T23:36:43.567776",
          "MEAN_MOTION": 2.00572573,
          "ECCENTRICITY": 0.00874294,
          "INCLINATION": 54.9734,
          "RA_OF_ASC_NODE": 221.9046,
          "ARG_OF_PERICENTER": 87.3088,
          "MEAN_ANOMALY": 273.766,
          "EPHEMERIS_TYPE": 0,
          "CLASSIFICATION_TYPE": "U",
          "NORAD_CAT_ID": 29601,
          "ELEMENT_SET_NO": 999,
          "REV_AT_EPOCH": 13941,
          "BSTAR": 0,
          "MEAN_MOTION_DOT": 3.8e-07,
          "MEAN_MOTION_DDOT": 0
        }
      },
      "geometry": {
        "type": "Point",
        "coordinates": [
          NaN,
          NaN
        ]
      }
    },
    {
      "type": "Feature",
      "properties": {
        "norad_id": 32260,
        "name": "GPS BIIRM-4 (PRN 15)",
        "group": "gnss",
        "lat": NaN,
        "lon": NaN,
        "alt_km": NaN,
        "timestamp": "2025-12-01T02:46:59.658341+00:00",
        "meta": {
          "OBJECT_NAME": "GPS BIIRM-4 (PRN 15)",
          "OBJECT_ID": "2007-047A",
          "EPOCH": "2025-11-29T18:58:26.203584",
          "MEAN_MOTION": 2.00564988,
          "ECCENTRICITY": 0.01644108,
          "INCLINATION": 53.9462,
          "RA_OF_ASC_NODE": 88.2935,
          "ARG_OF_PERICENTER": 85.0909,
          "MEAN_ANOMALY": 276.7728,
          "EPHEMERIS_TYPE": 0,
          "CLASSIFICATION_TYPE": "U",
          "NORAD_CAT_ID": 32260,
          "ELEMENT_SET_NO": 999,
          "REV_AT_EPOCH": 13281,
          "BSTAR": 0,
          "MEAN_MOTION_DOT": 1.1e-07,
          "MEAN_MOTION_DDOT": 0
        }
      },
      "geometry": {
        "type": "Point",
        "coordinates": [
          NaN,
          NaN
        ]
      }
    },
    {
      "type": "Feature",
      "properties": {
        "norad_id": 32275,
        "name": "COSMOS 2433 (720)",
        "group": "gnss",
        "lat": NaN,
        "lon": NaN,
        "alt_km": NaN,
        "timestamp": "2025-12-01T02:46:59.658359+00:00",
        "meta": {
          "OBJECT_NAME": "COSMOS 2433 (720)",
          "OBJECT_ID": "2007-052A",
          "EPOCH": "2025-11-29T22:48:15.126048",
          "MEAN_MOTION": 2.13103951,
          "ECCENTRICITY": 0.00056232,
          "INCLINATION": 65.6901,
          "RA_OF_ASC_NODE": 322.6356,
          "ARG_OF_PERICENTER": 251.628,
          "MEAN_ANOMALY": 108.3293,
          "EPHEMERIS_TYPE": 0,
          "CLASSIFICATION_TYPE": "U",
          "NORAD_CAT_ID": 32275,
          "ELEMENT_SET_NO": 999,
          "REV_AT_EPOCH": 14081,
          "BSTAR": 0,
          "MEAN_MOTION_DOT": -1.8e-07,
          "MEAN_MOTION_DDOT": 0
        }
      },
      "geometry": {
        "type": "Point",
        "coordinates": [
          NaN,
          NaN
        ]
      }
    },
    {
      "type": "Feature",
      "properties": {
        "norad_id": 32276,
        "name": "COSMOS 2432 (719)",
        "group": "gnss",
        "lat": NaN,
        "lon": NaN,
        "alt_km": NaN,
        "timestamp": "2025-12-01T02:46:59.658377+00:00",
        "meta": {
          "OBJECT_NAME": "COSMOS 2432 (719)",
          "OBJECT_ID": "2007-052B",
          "EPOCH": "2025-11-30T02:17:25.628064",
          "MEAN_MOTION": 2.13103086,
          "ECCENTRICITY": 0.00112175,
          "INCLINATION": 65.7059,
          "RA_OF_ASC_NODE": 322.7547,
          "ARG_OF_PERICENTER": 310.9925,
          "MEAN_ANOMALY": 104.908,
          "EPHEMERIS_TYPE": 0,
          "CLASSIFICATION_TYPE": "U",
          "NORAD_CAT_ID": 32276,
          "ELEMENT_SET_NO": 999,
          "REV_AT_EPOCH": 14084,
          "BSTAR": 0,
          "MEAN_MOTION_DOT": -1.8e-07,
          "MEAN_MOTION_DDOT": 0
        }
      },
      "geometry": {
        "type": "Point",
        "coordinates": [
          NaN,
          NaN
        ]
      }
    },
    {
      "type": "Feature",
      "properties": {
        "norad_id": 32384,
        "name": "GPS BIIRM-5 (PRN 29)",
        "group": "gnss",
        "lat": NaN,
        "lon": NaN,
        "alt_km": NaN,
        "timestamp": "2025-12-01T02:46:59.658417+00:00",
        "meta": {
          "OBJECT_NAME": "GPS BIIRM-5 (PRN 29)",
          "OBJECT_ID": "2007-062A",
          "EPOCH": "2025-11-30T01:46:38.777952",
          "MEAN_MOTION": 2.0057652,
          "ECCENTRICITY": 0.00321996,
          "INCLINATION": 55.1935,
          "RA_OF_ASC_NODE": 282.1541,
          "ARG_OF_PERICENTER": 162.9568,
          "MEAN_ANOMALY": 172.309,
          "EPHEMERIS_TYPE": 0,
          "CLASSIFICATION_TYPE": "U",
          "NORAD_CAT_ID": 32384,
          "ELEMENT_SET_NO": 999,
          "REV_AT_EPOCH": 13151,
          "BSTAR": 0,
          "MEAN_MOTION_DOT": -3.9e-07,
          "MEAN_MOTION_DDOT": 0
        }
      },
      "geometry": {
        "type": "Point",
        "coordinates": [
          NaN,
          NaN
        ]
      }
    },
    {
      "type": "Feature",
      "properties": {
        "norad_id": 32393,
        "name": "COSMOS 2434 (721)",
        "group": "gnss",
        "lat": NaN,
        "lon": NaN,
        "alt_km": NaN,
        "timestamp": "2025-12-01T02:46:59.658440+00:00",
        "meta": {
          "OBJECT_NAME": "COSMOS 2434 (721)",
          "OBJECT_ID": "2007-065A",
          "EPOCH": "2025-11-30T19:06:40.237056",
          "MEAN_MOTION": 2.13101185,
          "ECCENTRICITY": 0.0004324,
          "INCLINATION": 64.3147,
          "RA_OF_ASC_NODE": 198.6065,
          "ARG_OF_PERICENTER": 70.6228,
          "MEAN_ANOMALY": 109.1321,
          "EPHEMERIS_TYPE": 0,
          "CLASSIFICATION_TYPE": "U",
          "NORAD_CAT_ID": 32393,
          "ELEMENT_SET_NO": 999,
          "REV_AT_EPOCH": 13954,
          "BSTAR": 0,
          "MEAN_MOTION_DOT": 9.8e-07,
          "MEAN_MOTION_DDOT": 0
        }
      },
      "geometry": {
        "type": "Point",
        "coordinates": [
          NaN,
          NaN
        ]
      }
    },
    {
      "type": "Feature",
      "properties": {
        "norad_id": 32395,
        "name": "COSMOS 2436 (723)",
        "group": "gnss",
        "lat": NaN,
        "lon": NaN,
        "alt_km": NaN,
        "timestamp": "2025-12-01T02:46:59.658459+00:00",
        "meta": {
          "OBJECT_NAME": "COSMOS 2436 (723)",
          "OBJECT_ID": "2007-065C",
          "EPOCH": "2025-11-30T02:03:42.471936",
          "MEAN_MOTION": 2.13099987,
          "ECCENTRICITY": 0.00177044,
          "INCLINATION": 64.3233,
          "RA_OF_ASC_NODE": 198.7006,
          "ARG_OF_PERICENTER": 8.5569,
          "MEAN_ANOMALY": 119.3435,
          "EPHEMERIS_TYPE": 0,
          "CLASSIFICATION_TYPE": "U",
          "NORAD_CAT_ID": 32395,
          "ELEMENT_SET_NO": 999,
          "REV_AT_EPOCH": 13948,
          "BSTAR": 0,
          "MEAN_MOTION_DOT": 9.1e-07,
          "MEAN_MOTION_DDOT": 0
        }
      },
      "geometry": {
        "type": "Point",
        "coordinates": [
          NaN,
          NaN
        ]
      }
    }
  ]
}